*******************************************************************************
Ephemeris / WWW_USER Fri Mar  7 10:51:30 2025 Pasadena, USA      / Horizons    
*******************************************************************************
Target body name: (2018 SL3)                      {source: JPL#9}
Center body name: Earth (399)                     {source: DE441}
Center-site name: Mauna Kea
*******************************************************************************
Start time      : A.D. 2019-Jan-08 04:08:00.0000 UT      
Stop  time      : A.D. 2019-Jan-08 16:48:00.0000 UT      
Step-size       : 1 minutes
*******************************************************************************
Target pole/equ : undefined
Target radii    : undefined                                                    
Center geodetic : 204.5278, 19.8260847, 4.21024   {E-lon(deg),Lat(deg),Alt(km)}
Center cylindric: 204.5278, 6006.35451, 2151.0229 {E-lon(deg),Dxy(km),Dz(km)}
Center pole/equ : ITRF93                          {East-longitude positive}
Center radii    : 6378.137, 6378.137, 6356.752 km {Equator_a, b, pole_c}       
Target primary  : Sun
Vis. interferer : MOON (R_eq= 1737.400) km        {source: DE441}
Rel. light bend : Sun                             {source: DE441}
Rel. lght bnd GM: 1.3271E+11 km^3/s^2                                          
Small-body perts: Yes                             {source: SB441-N16}
Atmos refraction: NO (AIRLESS)
RA format       : HMS
Time format     : CAL 
Calendar mode   : Mixed Julian/Gregorian
RTS-only print  : NO       
EOP file        : eop.250306.p250602                                           
EOP coverage    : DATA-BASED 1962-JAN-20 TO 2025-MAR-06. PREDICTS-> 2025-JUN-01
Units conversion: 1 au= 149597870.700 km, c= 299792.458 km/s, 1 day= 86400.0 s 
Table cut-offs 1: Elevation (-90.0deg=NO ),Airmass (>38.000=NO), Daylight (YES)
Table cut-offs 2: Solar elongation (  0.0,180.0=NO ),Local Hour Angle( 0.0=NO )
Table cut-offs 3: RA/DEC angular rate (     0.0=NO )                           
*******************************************************************************
Initial IAU76/J2000 heliocentric ecliptic osculating elements (au, days, deg.):
  EPOCH=  2458395.5 ! 2018-Oct-04.00 (TDB)         Residual RMS= .22865        
   EC= .523832704749462    QR= .7523817427125933   TP= 2458455.4342692108      
   OM= 5.37828463666876    W=  89.37669799750542   IN= 4.07069530013935        
  Equivalent ICRF heliocentric cartesian coordinates (au, au/d):
   X= 1.077301312774806E+00  Y= 1.718701187822678E-01  Z= 8.135917115484240E-02
  VX=-1.117713770282307E-02 VY= 1.338322199759621E-02 VZ= 7.048365308861806E-03
Asteroid physical parameters (km, seconds, rotational period in hours):        
   GM= n.a.                RAD= n.a.               ROTPER= n.a.                
   H= 24.5                 G= .150                 B-V= n.a.                   
                           ALBEDO= n.a.            STYP= n.a.                  
*******************************************************************************
 Date__(UT)__HR:MN     R.A._________(ICRF)_________DEC
******************************************************
$$SOE
 2019-Jan-08 04:08 Cm  14 58 02.254452 -14 17 41.70493
 2019-Jan-08 04:09 Cm  14 58 02.350392 -14 17 42.34497
 2019-Jan-08 04:10 Cm  14 58 02.446339 -14 17 42.98506
 2019-Jan-08 04:11 Cm  14 58 02.542293 -14 17 43.62518
 2019-Jan-08 04:12 Cm  14 58 02.638254 -14 17 44.26534
 2019-Jan-08 04:13 Cm  14 58 02.734222 -14 17 44.90553
 2019-Jan-08 04:14 Cm  14 58 02.830197 -14 17 45.54577
 2019-Jan-08 04:15 Cm  14 58 02.926178 -14 17 46.18604
 2019-Jan-08 04:16 Cm  14 58 03.022166 -14 17 46.82636
 2019-Jan-08 04:17 Cm  14 58 03.118161 -14 17 47.46671
 2019-Jan-08 04:18 Cm  14 58 03.214162 -14 17 48.10710
 2019-Jan-08 04:19 Cm  14 58 03.310170 -14 17 48.74753
 2019-Jan-08 04:20 Cm  14 58 03.406184 -14 17 49.38800
 2019-Jan-08 04:21 Cm  14 58 03.502205 -14 17 50.02851
 2019-Jan-08 04:22 Cm  14 58 03.598232 -14 17 50.66906
 2019-Jan-08 04:23 Nm  14 58 03.694265 -14 17 51.30965
 2019-Jan-08 04:24 Nm  14 58 03.790305 -14 17 51.95028
 2019-Jan-08 04:25 Nm  14 58 03.886350 -14 17 52.59094
 2019-Jan-08 04:26 Nm  14 58 03.982402 -14 17 53.23165
 2019-Jan-08 04:27 Nm  14 58 04.078460 -14 17 53.87240
 2019-Jan-08 04:28 Nm  14 58 04.174524 -14 17 54.51319
 2019-Jan-08 04:29 Nm  14 58 04.270594 -14 17 55.15402
 2019-Jan-08 04:30 Nm  14 58 04.366670 -14 17 55.79488
 2019-Jan-08 04:31 Nm  14 58 04.462752 -14 17 56.43579
 2019-Jan-08 04:32 Nm  14 58 04.558839 -14 17 57.07674
 2019-Jan-08 04:33 Nm  14 58 04.654932 -14 17 57.71773
 2019-Jan-08 04:34 Nm  14 58 04.751031 -14 17 58.35876
 2019-Jan-08 04:35 Nm  14 58 04.847136 -14 17 58.99983
 2019-Jan-08 04:36 Nm  14 58 04.943246 -14 17 59.64094
 2019-Jan-08 04:37 Nm  14 58 05.039361 -14 18 00.28210
 2019-Jan-08 04:38 Nm  14 58 05.135482 -14 18 00.92329
 2019-Jan-08 04:39 Nm  14 58 05.231609 -14 18 01.56453
 2019-Jan-08 04:40 Nm  14 58 05.327740 -14 18 02.20580
 2019-Jan-08 04:41 Nm  14 58 05.423877 -14 18 02.84712
 2019-Jan-08 04:42 Nm  14 58 05.520019 -14 18 03.48848
 2019-Jan-08 04:43 Nm  14 58 05.616167 -14 18 04.12988
 2019-Jan-08 04:44 Nm  14 58 05.712319 -14 18 04.77132
 2019-Jan-08 04:45 Nm  14 58 05.808477 -14 18 05.41281
 2019-Jan-08 04:46 Nm  14 58 05.904639 -14 18 06.05433
 2019-Jan-08 04:47 Nm  14 58 06.000807 -14 18 06.69590
 2019-Jan-08 04:48 Nm  14 58 06.096979 -14 18 07.33751
 2019-Jan-08 04:49 Nm  14 58 06.193156 -14 18 07.97916
 2019-Jan-08 04:50 Am  14 58 06.289338 -14 18 08.62085
 2019-Jan-08 04:51 Am  14 58 06.385524 -14 18 09.26259
 2019-Jan-08 04:52 Am  14 58 06.481715 -14 18 09.90437
 2019-Jan-08 04:53 Am  14 58 06.577911 -14 18 10.54619
 2019-Jan-08 04:54 Am  14 58 06.674111 -14 18 11.18805
 2019-Jan-08 04:55 Am  14 58 06.770316 -14 18 11.82995
 2019-Jan-08 04:56 Am  14 58 06.866525 -14 18 12.47190
 2019-Jan-08 04:57 Am  14 58 06.962738 -14 18 13.11389
 2019-Jan-08 04:58 Am  14 58 07.058956 -14 18 13.75592
 2019-Jan-08 04:59 Am  14 58 07.155178 -14 18 14.39800
 2019-Jan-08 05:00 Am  14 58 07.251404 -14 18 15.04012
 2019-Jan-08 05:01 Am  14 58 07.347634 -14 18 15.68228
 2019-Jan-08 05:02 Am  14 58 07.443868 -14 18 16.32448
 2019-Jan-08 05:03 Am  14 58 07.540106 -14 18 16.96673
 2019-Jan-08 05:04 Am  14 58 07.636348 -14 18 17.60902
 2019-Jan-08 05:05 Am  14 58 07.732594 -14 18 18.25135
 2019-Jan-08 05:06 Am  14 58 07.828843 -14 18 18.89373
 2019-Jan-08 05:07 Am  14 58 07.925097 -14 18 19.53615
 2019-Jan-08 05:08 Am  14 58 08.021354 -14 18 20.17861
 2019-Jan-08 05:09 Am  14 58 08.117614 -14 18 20.82112
 2019-Jan-08 05:10 Am  14 58 08.213878 -14 18 21.46367
 2019-Jan-08 05:11 Am  14 58 08.310146 -14 18 22.10626
 2019-Jan-08 05:12 Am  14 58 08.406417 -14 18 22.74890
 2019-Jan-08 05:13 Am  14 58 08.502691 -14 18 23.39158
 2019-Jan-08 05:14 Am  14 58 08.598969 -14 18 24.03430
 2019-Jan-08 05:15 Am  14 58 08.695250 -14 18 24.67707
 2019-Jan-08 05:16 Am  14 58 08.791534 -14 18 25.31988
 2019-Jan-08 05:17  m  14 58 08.887822 -14 18 25.96274
 2019-Jan-08 05:18  m  14 58 08.984112 -14 18 26.60564
 2019-Jan-08 05:19  m  14 58 09.080405 -14 18 27.24858
 2019-Jan-08 05:20  m  14 58 09.176701 -14 18 27.89157
 2019-Jan-08 05:21  m  14 58 09.273001 -14 18 28.53460
 2019-Jan-08 05:22  m  14 58 09.369303 -14 18 29.17768
 2019-Jan-08 05:23  m  14 58 09.465607 -14 18 29.82080
 2019-Jan-08 05:24  m  14 58 09.561915 -14 18 30.46396
 2019-Jan-08 05:25  m  14 58 09.658225 -14 18 31.10717
 2019-Jan-08 05:26  m  14 58 09.754537 -14 18 31.75042
 2019-Jan-08 05:27  m  14 58 09.850852 -14 18 32.39372
 2019-Jan-08 05:28  m  14 58 09.947170 -14 18 33.03706
 2019-Jan-08 05:29  m  14 58 10.043490 -14 18 33.68045
 2019-Jan-08 05:30  m  14 58 10.139812 -14 18 34.32388
 2019-Jan-08 05:31  m  14 58 10.236137 -14 18 34.96735
 2019-Jan-08 05:32  m  14 58 10.332463 -14 18 35.61087
 2019-Jan-08 05:33  m  14 58 10.428792 -14 18 36.25444
 2019-Jan-08 05:34  m  14 58 10.525123 -14 18 36.89805
 2019-Jan-08 05:35  m  14 58 10.621456 -14 18 37.54170
 2019-Jan-08 05:36  m  14 58 10.717791 -14 18 38.18540
 2019-Jan-08 05:37  m  14 58 10.814127 -14 18 38.82914
 2019-Jan-08 05:38  m  14 58 10.910466 -14 18 39.47293
 2019-Jan-08 05:39  m  14 58 11.006806 -14 18 40.11676
 2019-Jan-08 05:40  m  14 58 11.103148 -14 18 40.76064
 2019-Jan-08 05:41  m  14 58 11.199492 -14 18 41.40456
 2019-Jan-08 05:42  m  14 58 11.295837 -14 18 42.04853
 2019-Jan-08 05:43  m  14 58 11.392184 -14 18 42.69254
 2019-Jan-08 05:44  m  14 58 11.488532 -14 18 43.33660
 2019-Jan-08 05:45  m  14 58 11.584882 -14 18 43.98070
 2019-Jan-08 05:46  m  14 58 11.681233 -14 18 44.62485
 2019-Jan-08 05:47  m  14 58 11.777585 -14 18 45.26904
 2019-Jan-08 05:48  m  14 58 11.873938 -14 18 45.91328
 2019-Jan-08 05:49  m  14 58 11.970293 -14 18 46.55756
 2019-Jan-08 05:50     14 58 12.066648 -14 18 47.20189
 2019-Jan-08 05:51     14 58 12.163005 -14 18 47.84626
 2019-Jan-08 05:52     14 58 12.259362 -14 18 48.49068
 2019-Jan-08 05:53     14 58 12.355721 -14 18 49.13514
 2019-Jan-08 05:54     14 58 12.452080 -14 18 49.77965
 2019-Jan-08 05:55     14 58 12.548440 -14 18 50.42420
 2019-Jan-08 05:56     14 58 12.644801 -14 18 51.06880
 2019-Jan-08 05:57     14 58 12.741162 -14 18 51.71344
 2019-Jan-08 05:58     14 58 12.837524 -14 18 52.35813
 2019-Jan-08 05:59     14 58 12.933886 -14 18 53.00287
 2019-Jan-08 06:00     14 58 13.030249 -14 18 53.64765
 2019-Jan-08 06:01     14 58 13.126612 -14 18 54.29247
 2019-Jan-08 06:02     14 58 13.222976 -14 18 54.93734
 2019-Jan-08 06:03     14 58 13.319340 -14 18 55.58226
 2019-Jan-08 06:04     14 58 13.415704 -14 18 56.22722
 2019-Jan-08 06:05     14 58 13.512068 -14 18 56.87223
 2019-Jan-08 06:06     14 58 13.608432 -14 18 57.51728
 2019-Jan-08 06:07     14 58 13.704796 -14 18 58.16237
 2019-Jan-08 06:08     14 58 13.801161 -14 18 58.80752
 2019-Jan-08 06:09     14 58 13.897525 -14 18 59.45270
 2019-Jan-08 06:10     14 58 13.993888 -14 19 00.09794
